[{"OBJECT_NAME":"STARLINK-31094","OBJECT_ID":"2023-200E","EPOCH":"2026-03-09T14:55:33.976128","MEAN_MOTION":15.26740016,"ECCENTRICITY":0.00013941,"INCLINATION":43.0018,"RA_OF_ASC_NODE":168.9694,"ARG_OF_PERICENTER":266.7261,"MEAN_ANOMALY":93.3431,"EPHEMERIS_TYPE":0,"CLASSIFICATION_TYPE":"U","NORAD_CAT_ID":58593,"ELEMENT_SET_NO":999,"REV_AT_EPOCH":12360,"BSTAR":3.2519584e-5,"MEAN_MOTION_DOT":6.13e-6,"MEAN_MOTION_DDOT":0},{"OBJECT_NAME":"TROLL","OBJECT_ID":"2025-009BB","EPOCH":"2026-03-09T05:24:19.835712","MEAN_MOTION":15.28164315,"ECCENTRICITY":0.00018165,"INCLINATION":97.3932,"RA_OF_ASC_NODE":150.7169,"ARG_OF_PERICENTER":59.185,"MEAN_ANOMALY":300.9568,"EPHEMERIS_TYPE":0,"CLASSIFICATION_TYPE":"U","NORAD_CAT_ID":62658,"ELEMENT_SET_NO":999,"REV_AT_EPOCH":11817,"BSTAR":0.00048220305,"MEAN_MOTION_DOT":0.00013174,"MEAN_MOTION_DDOT":0}]
